ARIANE 40 R/B           
1 20443U 90005H   25349.17153120  .00000318  00000+0  11470-3 0  9997
2 20443  98.3242  47.2807 0011292  99.1617 261.0850 14.39800466880648
DELTA 2 R/B(1)          
1 20453U 90008B   25349.33497883  .00033090  00000+0  52620-3 0  9991
2 20453  35.6079   3.7730 0111265 202.2325 157.3560 15.45441564913030
COSMOS 2058             
1 20465U 90010A   25349.34152777  .00004413  00000+0  26613-3 0  9998
2 20465  82.4670 130.4707 0008442 262.0087  98.0184 15.10497551929504
SL-14 R/B               
1 20466U 90010B   25349.24113850  .00000499  00000+0  57661-4 0  9995
2 20466  82.5020 346.6977 0018881 214.4540 145.5452 14.83473580915964
SL-14 R/B               
1 20511U 90018B   25349.31279200  .00000557  00000+0  67076-4 0  9990
2 20511  82.5211 301.9594 0016805  15.1810 344.9905 14.82049376910083
HST                     
1 20580U 90037B   25349.07795527  .00005822  00000+0  19864-3 0  9996
2 20580  28.4683 256.5742 0001803 269.4732  90.5656 15.28089974760359
SL-16 R/B               
1 20625U 90046B   25349.36152651 -.00000191  00000+0 -74079-4 0  9999
2 20625  70.9990 115.0154 0011872  68.4357 291.8030 14.15000786836462
COSMOS 2084             
1 20663U 90055A   25349.15927354  .00002211  00000+0  16759-3 0  9991
2 20663  62.7905 263.7486 0031337 175.0150 185.1269 15.05035541923599
SL-6 R/B(2)             
1 20666U 90055D   25348.89622546  .00001839  00000+0  15012-3 0  9995
2 20666  62.7820 182.0884 0012935 310.5499  49.4473 15.03085436925449
SL-8 R/B                
1 20775U 90078B   25349.35717965  .00017459  00000+0  53999-3 0  9994
2 20775  82.9045 326.9672 0371561 297.0974  59.2791 14.86055520796761
SL-8 R/B                
1 21088U 91006B   25349.16664904  .00000077  00000+0  62616-4 0  9992
2 21088  82.9425 232.9078 0021187 272.6460 241.7633 13.77490340752433
OKEAN-3                 
1 21397U 91039A   25349.27667295  .00003300  00000+0  23572-3 0  9998
2 21397  82.5178  58.5921 0013145 256.9561 103.0198 15.04138439852345
COSMOS 2151             
1 21422U 91042A   25349.22537801  .00001855  00000+0  14810-3 0  9993
2 21422  82.4957 165.1077 0012371 351.5840   8.5174 14.99695727850530
SL-14 R/B               
1 21423U 91042B   25349.34814384  .00000494  00000+0  59539-4 0  9997
2 21423  82.4927 299.2769 0017687 153.4324 206.7801 14.81741373840589
ERS-1                   
1 21574U 91050A   25349.30896871  .00000371  00000+0  13319-3 0  9999
2 21574  98.7904   0.4281 0033042  92.6940 267.8030 14.39366777803599
ARIANE 40 R/B           
1 21610U 91050F   25349.14436752  .00000358  00000+0  11994-3 0  9992
2 21610  98.2163  39.4881 0002636 352.9796   7.1357 14.42815257806806
INTERCOSMOS 25          
1 21819U 91086A   25349.27731662  .00001747  00000+0  34764-3 0  9997
2 21819  82.6068   1.0417 1486494 298.9262  47.0676 12.11735751486461
SL-8 R/B                
1 21876U 92008B   25349.38848647  .00000142  00000+0  13019-3 0  9997
2 21876  82.9266 330.4760 0035028  12.4969 140.7059 13.75959477697826
SL-8 R/B                
1 21938U 92020B   25349.18098560  .00000112  00000+0  10004-3 0  9997
2 21938  82.9302 216.5048 0029058 171.3159 310.7001 13.75527629689514
USA 81                  
1 21949U 92023A   25349.26954334  .00000214  00000+0  71769-4 0  9990
2 21949  85.0079 180.1172 0001299  67.9439 292.1892 14.32327779 82700
COSMOS 2219             
1 22219U 92076A   25349.27123914  .00000062  00000+0  57085-4 0  9998
2 22219  71.0573 194.5409 0019126 323.4494  36.5322 14.14062799706446
SL-16 R/B               
1 22220U 92076B   25349.32075784  .00000083  00000+0  65055-4 0  9996
2 22220  71.0005   6.0950 0014643 230.5390 146.4855 14.16841080709881
COSMOS 2221             
1 22236U 92080A   25349.29304977  .00001651  00000+0  14540-3 0  9997
2 22236  82.5043 359.8816 0016163 113.8405 246.4513 14.95770628768171
SL-16 R/B               
1 22285U 92093B   25349.28825236  .00000350  00000+0  20355-3 0  9996
2 22285  71.0200 181.4460 0002219  62.9804 297.1545 14.15431314701219
COSMOS 2228             
1 22286U 92094A   25349.36445882  .00001821  00000+0  15672-3 0  9992
2 22286  82.5177 318.0228 0016693 221.7035 138.2915 14.96743111763441
SL-16 R/B               
1 22566U 93016B   25349.39092448  .00000054  00000+0  52371-4 0  9992
2 22566  71.0080  32.2357 0007948  92.5213 267.6820 14.15287012690244
COSMOS 2242             
1 22626U 93024A   25349.24414284  .00001647  00000+0  14387-3 0  9991
2 22626  82.5188 347.4512 0015097 224.9755 135.0246 14.96117728767764
SL-16 R/B               
1 22803U 93059B   25348.99074793 -.00000164  00000+0 -57459-4 0  9997
2 22803  70.9886 189.7397 0018122 332.4168  27.5992 14.17213302667535
ARIANE 40 R/B           
1 22830U 93061H   25349.20210311  .00000284  00000+0  12009-3 0  9995
2 22830  98.5075  54.6872 0011024 168.8849 191.2580 14.32803021682001
COSMOS 2278             
1 23087U 94023A   25349.36490277 -.00000200  00000+0 -80079-4 0  9990
2 23087  71.0539 351.5188 0008188 175.3598 184.7603 14.14349689632886
SL-16 R/B               
1 23088U 94023B   25349.16704743 -.00000096  00000+0 -25160-4 0  9998
2 23088  71.0002 248.3885 0001503  19.0182 341.0997 14.15002927634132
SL-16 R/B               
1 23343U 94074B   25349.37101965  .00000514  00000+0  75701-4 0  9997
2 23343  97.7201  18.5710 0007699 128.4977 242.1604 14.79292588674780
SL-16 R/B               
1 23405U 94077B   25349.25229699  .00000252  00000+0  15353-3 0  9996
2 23405  70.9811 170.1276 0004729 282.4321  77.6273 14.15551325604284
ARIANE 40+ R/B          
1 23561U 95021B   25349.16276528  .00000312  00000+0  11360-3 0  9993
2 23561  98.4649  56.7223 0007385  43.6335 344.9145 14.39697188607088
SL-16 R/B               
1 23705U 95058B   25349.32576990 -.00000083  00000+0 -17998-4 0  9998
2 23705  71.0225 357.3750 0014982 252.1761 107.7728 14.15484075555910
SL-16 R/B               
1 24298U 96051B   25349.32150473  .00000025  00000+0  40485-4 0  9995
2 24298  70.7595 353.8190 0019441 258.1533 101.7406 14.12397128509736
ORBVIEW 2 (SEASTAR)     
1 24883U 97037A   25349.35500605  .00000322  00000+0  12849-3 0  9991
2 24883  98.8457 146.4952 0001556 331.6378  28.4722 14.35419169496374
SL-16 R/B               
1 25400U 98043G   25349.32430896  .00000077  00000+0  51035-4 0  9994
2 25400  98.8129 297.1569 0008790 258.3300 101.6893 14.26026317426961
SL-16 R/B               
1 25407U 98045B   25349.30752905 -.00000122  00000+0 -37672-4 0  9993
2 25407  71.0116 359.0267 0006781 173.3115 186.8100 14.16174554415159
ISS (ZARYA)             
1 25544U 98067A   25349.24971864  .00007132  00000+0  13467-3 0  9990
2 25544  51.6306 130.0501 0003193 251.9008 108.1633 15.49601155543241
CZ-4B R/B               
1 25732U 99025C   25349.34954501  .00000076  00000+0  57668-4 0  9996
2 25732  98.6766  30.5712 0036391 226.3292 143.9093 14.18244228376213
OKEAN-O                 
1 25860U 99039A   25349.15561463  .00000790  00000+0  11092-3 0  9996
2 25860  97.9602  44.8364 0000857 103.7037 256.4270 14.80165311421885
SL-16 R/B               
1 25861U 99039B   25349.14837797  .00000644  00000+0  88721-4 0  9994
2 25861  98.0125  43.2998 0015114 166.9043 193.2565 14.81589797424342
DELTA 2 R/B             
1 25876U 99041E   25349.26281823  .00001144  00000+0  22398-3 0  9992
2 25876  51.7611 278.3738 0504654  99.2038 266.6314 14.11408727351107
HELIOS 1B               
1 25977U 99064A   25349.15818819  .00001353  00000+0  15654-3 0  9997
2 25977  98.1757 243.8955 0001581  41.6030 318.5305 14.87293711672692
TERRA                   
1 25994U 99068A   25349.33451762  .00000512  00000+0  11377-3 0  9994
2 25994  97.9747  40.9238 0003600  89.4268 319.6206 14.60904832382766
SL-16 R/B               
1 26070U 00006B   25349.23037549 -.00000219  00000+0 -86868-4 0  9990
2 26070  71.0028 275.4206 0018556 305.2405  54.6981 14.15809988336609
TITAN 4B R/B            
1 26474U 00047B   25349.32840830  .00003227  00000+0  20972-3 0  9991
2 26474  67.9895 277.5845 0038739 141.3550 219.0383 15.08802283380189
ENVISAT                 
1 27386U 02009A   25349.36002676  .00000141  00000+0  59438-4 0  9998
2 27386  98.3603 300.0342 0001138  83.8198  85.3606 14.39000276247046
IDEFIX & ARIANE 42P R/B 
1 27422U 02021B   25349.31026209  .00000322  00000+0  13906-3 0  9996
2 27422  98.5788 283.9678 0012961  76.7800 283.4828 14.30952356231957
AQUA                    
1 27424U 02022A   25349.36942604  .00001147  00000+0  23955-3 0  9991
2 27424  98.4040 310.2912 0001189 114.3209   1.9707 14.61815411256417
CZ-4B R/B               
1 27432U 02024C   25349.39415942  .00000059  00000+0  53841-4 0  9994
2 27432  98.8997  38.1566 0049160 262.2053 107.7401 14.14528310217323
MIDORI II (ADEOS-II)    
1 27597U 02056A   25349.30572906  .00000290  00000+0  13198-3 0  9993
2 27597  98.7639 302.2755 0000320 155.0498 205.0699 14.29207562198248
H-2A R/B                
1 27601U 02056E   25349.35221312  .00000395  00000+0  15271-3 0  9996
2 27601  98.3069 308.0049 0071327  53.4796 108.1948 14.33678446202024
CZ-4B R/B               
1 28059U 03049C   25348.93390941  .00000406  00000+0  10466-3 0  9999
2 28059  98.6790 335.5807 0049095 129.4878 231.0675 14.54911227174273
CZ-2C R/B               
1 28222U 04012C   25349.31246952  .00029174  00000+0  42192-3 0  9991
2 28222  97.7425  42.1466 0016431 260.2776  99.6622 15.55726853191125
SL-16 R/B               
1 28353U 04021B   25349.30863098 -.00000230  00000+0 -94982-4 0  9990
2 28353  71.0013  49.5747 0005151 196.2042 163.8917 14.14579682110900
CZ-4B R/B               
1 28415U 04035C   25349.05088247  .00006100  00000+0  22686-3 0  9992
2 28415  97.3611  19.3643 0031535 268.8723  90.8904 15.27413399166982
CZ-2C R/B               
1 28480U 04046B   25349.34302456  .00000221  00000+0  97120-4 0  9993
2 28480  98.1990 264.5590 0140402  44.6620 316.5770 14.26942251 96475
